[
{"CCSDS_OMM_VERS":"2.0",
"COMMENT":"GENERATED VIA SPACE-TRACK.ORG API",
"CREATION_DATE":"2022-09-01T18:10:37",
"ORIGINATOR":"18 SPCS",
"OBJECT_NAME":"VANGUARD 1",
"OBJECT_ID":"1958-002B",
"CENTER_NAME":"EARTH",
"REF_FRAME":"TEME",
"TIME_SYSTEM":"UTC",
"MEAN_ELEMENT_THEORY":"SGP4",
"EPOCH":"2022-09-01T10:22:33.224736",
"MEAN_MOTION":"10.84999489",
"ECCENTRICITY":"0.18470680",
"INCLINATION":"34.2444",
"RA_OF_ASC_NODE":"265.2742",
"ARG_OF_PERICENTER":"19.5045",
"MEAN_ANOMALY":"346.7699",
"EPHEMERIS_TYPE":"0",
"CLASSIFICATION_TYPE":"U",
"NORAD_CAT_ID":"5",
"ELEMENT_SET_NO":"999",
"REV_AT_EPOCH":"29279",
"BSTAR":"0.00023521000000",
"MEAN_MOTION_DOT":"0.00000173",
"MEAN_MOTION_DDOT":"0.0000000000000",
"SEMIMAJOR_AXIS":"8618.840",
"PERIOD":"132.719",
"APOAPSIS":"3832.663",
"PERIAPSIS":"648.747",
"OBJECT_TYPE":"PAYLOAD",
"RCS_SIZE":"SMALL",
"COUNTRY_CODE":"US",
"LAUNCH_DATE":"1958-03-17",
"SITE":"AFETR",
"DECAY_DATE":null,
"FILE":"3553574",
"GP_ID":"211446524",
"TLE_LINE0":"0 VANGUARD 1",
"TLE_LINE1":"1 00005U 58002B   22244.43232899  .00000173  00000-0  23521-3 0  9991",
"TLE_LINE2":"2 00005  34.2444 265.2742 1847068  19.5045 346.7699 10.84999489292798"},
{"CCSDS_OMM_VERS":"2.0",
"COMMENT":"GENERATED VIA SPACE-TRACK.ORG API",
"CREATION_DATE":"2022-09-02T17:31:38",
"ORIGINATOR":"18 SPCS",
"OBJECT_NAME":"VANGUARD 1",
"OBJECT_ID":"1958-002B",
"CENTER_NAME":"EARTH",
"REF_FRAME":"TEME",
"TIME_SYSTEM":"UTC",
"MEAN_ELEMENT_THEORY":"SGP4",
"EPOCH":"2022-09-02T08:28:41.162880",
"MEAN_MOTION":"10.84999693",
"ECCENTRICITY":"0.18470590",
"INCLINATION":"34.2440",
"RA_OF_ASC_NODE":"262.4349",
"ARG_OF_PERICENTER":"23.6517",
"MEAN_ANOMALY":"343.9028",
"EPHEMERIS_TYPE":"0",
"CLASSIFICATION_TYPE":"U",
"NORAD_CAT_ID":"5",
"ELEMENT_SET_NO":"999",
"REV_AT_EPOCH":"29289",
"BSTAR":"0.00022037000000",
"MEAN_MOTION_DOT":"0.00000160",
"MEAN_MOTION_DDOT":"0.0000000000000",
"SEMIMAJOR_AXIS":"8618.839",
"PERIOD":"132.719",
"APOAPSIS":"3832.654",
"PERIAPSIS":"648.754",
"OBJECT_TYPE":"PAYLOAD",
"RCS_SIZE":"SMALL",
"COUNTRY_CODE":"US",
"LAUNCH_DATE":"1958-03-17",
"SITE":"AFETR",
"DECAY_DATE":null,
"FILE":"3555279",
"GP_ID":"211535367",
"TLE_LINE0":"0 VANGUARD 1",
"TLE_LINE1":"1 00005U 58002B   22245.35325420  .00000160  00000-0  22037-3 0  9993",
"TLE_LINE2":"2 00005  34.2440 262.4349 1847059  23.6517 343.9028 10.84999693292899"},
{"CCSDS_OMM_VERS":"2.0",
"COMMENT":"GENERATED VIA SPACE-TRACK.ORG API",
"CREATION_DATE":"2022-09-03T07:06:15",
"ORIGINATOR":"18 SPCS",
"OBJECT_NAME":"VANGUARD 1",
"OBJECT_ID":"1958-002B",
"CENTER_NAME":"EARTH",
"REF_FRAME":"TEME",
"TIME_SYSTEM":"UTC",
"MEAN_ELEMENT_THEORY":"SGP4",
"EPOCH":"2022-09-03T04:22:11.783712",
"MEAN_MOTION":"10.85000040",
"ECCENTRICITY":"0.18470570",
"INCLINATION":"34.2437",
"RA_OF_ASC_NODE":"259.8795",
"ARG_OF_PERICENTER":"27.3841",
"MEAN_ANOMALY":"341.3001",
"EPHEMERIS_TYPE":"0",
"CLASSIFICATION_TYPE":"U",
"NORAD_CAT_ID":"5",
"ELEMENT_SET_NO":"999",
"REV_AT_EPOCH":"29308",
"BSTAR":"0.00024158000000",
"MEAN_MOTION_DOT":"0.00000176",
"MEAN_MOTION_DDOT":"0.0000000000000",
"SEMIMAJOR_AXIS":"8618.837",
"PERIOD":"132.719",
"APOAPSIS":"3832.650",
"PERIAPSIS":"648.754",
"OBJECT_TYPE":"PAYLOAD",
"RCS_SIZE":"SMALL",
"COUNTRY_CODE":"US",
"LAUNCH_DATE":"1958-03-17",
"SITE":"AFETR",
"DECAY_DATE":null,
"FILE":"3555772",
"GP_ID":"211596583",
"TLE_LINE0":"0 VANGUARD 1",
"TLE_LINE1":"1     5U 58002B   22246.18208083  .00000176  00000-0  24158-3 0  9993",
"TLE_LINE2":"2     5  34.2437 259.8795 1847057  27.3841 341.3001 10.85000040293084"},
{"CCSDS_OMM_VERS":"2.0",
"COMMENT":"GENERATED VIA SPACE-TRACK.ORG API",
"CREATION_DATE":"2022-09-03T18:05:32",
"ORIGINATOR":"18 SPCS",
"OBJECT_NAME":"VANGUARD 1",
"OBJECT_ID":"1958-002B",
"CENTER_NAME":"EARTH",
"REF_FRAME":"TEME",
"TIME_SYSTEM":"UTC",
"MEAN_ELEMENT_THEORY":"SGP4",
"EPOCH":"2022-09-03T08:47:25.181088",
"MEAN_MOTION":"10.85000107",
"ECCENTRICITY":"0.18470580",
"INCLINATION":"34.2436",
"RA_OF_ASC_NODE":"259.3117",
"ARG_OF_PERICENTER":"28.2135",
"MEAN_ANOMALY":"340.7185",
"EPHEMERIS_TYPE":"0",
"CLASSIFICATION_TYPE":"U",
"NORAD_CAT_ID":"5",
"ELEMENT_SET_NO":"999",
"REV_AT_EPOCH":"29300",
"BSTAR":"0.00024420000000",
"MEAN_MOTION_DOT":"0.00000178",
"MEAN_MOTION_DDOT":"0.0000000000000",
"SEMIMAJOR_AXIS":"8618.837",
"PERIOD":"132.719",
"APOAPSIS":"3832.651",
"PERIAPSIS":"648.753",
"OBJECT_TYPE":"PAYLOAD",
"RCS_SIZE":"SMALL",
"COUNTRY_CODE":"US",
"LAUNCH_DATE":"1958-03-17",
"SITE":"AFETR",
"DECAY_DATE":null,
"FILE":"3556494",
"GP_ID":"211613950",
"TLE_LINE0":"0 VANGUARD 1",
"TLE_LINE1":"1 00005U 58002B   22246.36626367  .00000178  00000-0  24420-3 0  9996",
"TLE_LINE2":"2 00005  34.2436 259.3117 1847058  28.2135 340.7185 10.85000107293005"},
{"CCSDS_OMM_VERS":"2.0",
"COMMENT":"GENERATED VIA SPACE-TRACK.ORG API",
"CREATION_DATE":"2022-09-04T17:21:38",
"ORIGINATOR":"18 SPCS",
"OBJECT_NAME":"VANGUARD 1",
"OBJECT_ID":"1958-002B",
"CENTER_NAME":"EARTH",
"REF_FRAME":"TEME",
"TIME_SYSTEM":"UTC",
"MEAN_ELEMENT_THEORY":"SGP4",
"EPOCH":"2022-09-04T09:06:08.316288",
"MEAN_MOTION":"10.85000444",
"ECCENTRICITY":"0.18470570",
"INCLINATION":"34.2433",
"RA_OF_ASC_NODE":"256.1885",
"ARG_OF_PERICENTER":"32.7753",
"MEAN_ANOMALY":"337.4961",
"EPHEMERIS_TYPE":"0",
"CLASSIFICATION_TYPE":"U",
"NORAD_CAT_ID":"5",
"ELEMENT_SET_NO":"999",
"REV_AT_EPOCH":"29311",
"BSTAR":"0.00024033000000",
"MEAN_MOTION_DOT":"0.00000174",
"MEAN_MOTION_DDOT":"0.0000000000000",
"SEMIMAJOR_AXIS":"8618.835",
"PERIOD":"132.719",
"APOAPSIS":"3832.648",
"PERIAPSIS":"648.752",
"OBJECT_TYPE":"PAYLOAD",
"RCS_SIZE":"SMALL",
"COUNTRY_CODE":"US",
"LAUNCH_DATE":"1958-03-17",
"SITE":"AFETR",
"DECAY_DATE":null,
"FILE":"3557975",
"GP_ID":"211696307",
"TLE_LINE0":"0 VANGUARD 1",
"TLE_LINE1":"1 00005U 58002B   22247.37926292  .00000174  00000-0  24033-3 0  9994",
"TLE_LINE2":"2 00005  34.2433 256.1885 1847057  32.7753 337.4961 10.85000444293115"},
{"CCSDS_OMM_VERS":"2.0",
"COMMENT":"GENERATED VIA SPACE-TRACK.ORG API",
"CREATION_DATE":"2022-09-05T17:24:34",
"ORIGINATOR":"18 SPCS",
"OBJECT_NAME":"VANGUARD 1",
"OBJECT_ID":"1958-002B",
"CENTER_NAME":"EARTH",
"REF_FRAME":"TEME",
"TIME_SYSTEM":"UTC",
"MEAN_ELEMENT_THEORY":"SGP4",
"EPOCH":"2022-09-05T09:24:50.408640",
"MEAN_MOTION":"10.85001126",
"ECCENTRICITY":"0.18470460",
"INCLINATION":"34.2431",
"RA_OF_ASC_NODE":"253.0654",
"ARG_OF_PERICENTER":"37.3371",
"MEAN_ANOMALY":"334.2289",
"EPHEMERIS_TYPE":"0",
"CLASSIFICATION_TYPE":"U",
"NORAD_CAT_ID":"5",
"ELEMENT_SET_NO":"999",
"REV_AT_EPOCH":"29322",
"BSTAR":"0.00029592000000",
"MEAN_MOTION_DOT":"0.00000218",
"MEAN_MOTION_DDOT":"0.0000000000000",
"SEMIMAJOR_AXIS":"8618.831",
"PERIOD":"132.719",
"APOAPSIS":"3832.634",
"PERIAPSIS":"648.759",
"OBJECT_TYPE":"PAYLOAD",
"RCS_SIZE":"SMALL",
"COUNTRY_CODE":"US",
"LAUNCH_DATE":"1958-03-17",
"SITE":"AFETR",
"DECAY_DATE":null,
"FILE":"3559490",
"GP_ID":"211781483",
"TLE_LINE0":"0 VANGUARD 1",
"TLE_LINE1":"1 00005U 58002B   22248.39225010  .00000218  00000-0  29592-3 0  9991",
"TLE_LINE2":"2 00005  34.2431 253.0654 1847046  37.3371 334.2289 10.85001126293226"},
{"CCSDS_OMM_VERS":"2.0",
"COMMENT":"GENERATED VIA SPACE-TRACK.ORG API",
"CREATION_DATE":"2022-09-05T14:46:13",
"ORIGINATOR":"18 SPCS",
"OBJECT_NAME":"VANGUARD 1",
"OBJECT_ID":"1958-002B",
"CENTER_NAME":"EARTH",
"REF_FRAME":"TEME",
"TIME_SYSTEM":"UTC",
"MEAN_ELEMENT_THEORY":"SGP4",
"EPOCH":"2022-09-05T09:24:50.408640",
"MEAN_MOTION":"10.85001126",
"ECCENTRICITY":"0.18470460",
"INCLINATION":"34.2431",
"RA_OF_ASC_NODE":"253.0654",
"ARG_OF_PERICENTER":"37.3371",
"MEAN_ANOMALY":"334.2289",
"EPHEMERIS_TYPE":"0",
"CLASSIFICATION_TYPE":"U",
"NORAD_CAT_ID":"5",
"ELEMENT_SET_NO":"999",
"REV_AT_EPOCH":"29332",
"BSTAR":"0.00029592000000",
"MEAN_MOTION_DOT":"0.00000218",
"MEAN_MOTION_DDOT":"0.0000000000000",
"SEMIMAJOR_AXIS":"8618.831",
"PERIOD":"132.719",
"APOAPSIS":"3832.634",
"PERIAPSIS":"648.759",
"OBJECT_TYPE":"PAYLOAD",
"RCS_SIZE":"SMALL",
"COUNTRY_CODE":"US",
"LAUNCH_DATE":"1958-03-17",
"SITE":"AFETR",
"DECAY_DATE":null,
"FILE":"3559167",
"GP_ID":"211772760",
"TLE_LINE0":"0 VANGUARD 1",
"TLE_LINE1":"1     5U 58002B   22248.39225010  .00000218  00000-0  29592-3 0  9991",
"TLE_LINE2":"2     5  34.2431 253.0654 1847046  37.3371 334.2289 10.85001126293327"},
{"CCSDS_OMM_VERS":"2.0",
"COMMENT":"GENERATED VIA SPACE-TRACK.ORG API",
"CREATION_DATE":"2022-09-06T17:32:36",
"ORIGINATOR":"18 SPCS",
"OBJECT_NAME":"VANGUARD 1",
"OBJECT_ID":"1958-002B",
"CENTER_NAME":"EARTH",
"REF_FRAME":"TEME",
"TIME_SYSTEM":"UTC",
"MEAN_ELEMENT_THEORY":"SGP4",
"EPOCH":"2022-09-06T09:43:31.344960",
"MEAN_MOTION":"10.85001575",
"ECCENTRICITY":"0.18470640",
"INCLINATION":"34.2430",
"RA_OF_ASC_NODE":"249.9425",
"ARG_OF_PERICENTER":"41.8982",
"MEAN_ANOMALY":"330.9112",
"EPHEMERIS_TYPE":"0",
"CLASSIFICATION_TYPE":"U",
"NORAD_CAT_ID":"5",
"ELEMENT_SET_NO":"999",
"REV_AT_EPOCH":"29333",
"BSTAR":"0.00029501000000",
"MEAN_MOTION_DOT":"0.00000216",
"MEAN_MOTION_DDOT":"0.0000000000000",
"SEMIMAJOR_AXIS":"8618.829",
"PERIOD":"132.719",
"APOAPSIS":"3832.647",
"PERIAPSIS":"648.741",
"OBJECT_TYPE":"PAYLOAD",
"RCS_SIZE":"SMALL",
"COUNTRY_CODE":"US",
"LAUNCH_DATE":"1958-03-17",
"SITE":"AFETR",
"DECAY_DATE":null,
"FILE":"3560801",
"GP_ID":"211862118",
"TLE_LINE0":"0 VANGUARD 1",
"TLE_LINE1":"1 00005U 58002B   22249.40522390  .00000216  00000-0  29501-3 0  9993",
"TLE_LINE2":"2 00005  34.2430 249.9425 1847064  41.8982 330.9112 10.85001575293331"}]